$$SOE
2460728.500000000, A.D. 2025-Feb-22 00:00:00.0000, 1.608012329652005E+08, -4.901254103545190E+08, 6.406365750341088E+06,
2460735.500000000, A.D. 2025-Mar-01 00:00:00.0000, 1.689294545322000E+08, -4.856563652579628E+08, 5.906816976440817E+06,
2460742.500000000, A.D. 2025-Mar-08 00:00:00.0000, 1.769973684332876E+08, -4.810140055367946E+08, 5.405159316161811E+06,
2460749.500000000, A.D. 2025-Mar-15 00:00:00.0000, 1.850014833868512E+08, -4.761983148396180E+08, 4.901552774941683E+06,
2460756.500000000, A.D. 2025-Mar-22 00:00:00.0000, 1.929382577942042E+08, -4.712093281084296E+08, 4.396161371402025E+06,
2460763.500000000, A.D. 2025-Mar-29 00:00:00.0000, 2.008040984494781E+08, -4.660471357909997E+08, 3.889153159179181E+06,
2460770.500000000, A.D. 2025-Apr-05 00:00:00.0000, 2.085953609983080E+08, -4.607118872656022E+08, 3.380700166502088E+06,
2460777.500000000, A.D. 2025-Apr-12 00:00:00.0000, 2.163083502250911E+08, -4.552037933766242E+08, 2.870978438233346E+06,
2460784.500000000, A.D. 2025-Apr-19 00:00:00.0000, 2.239393199875102E+08, -4.495231289644746E+08, 2.360168125051677E+06,
2460791.500000000, A.D. 2025-Apr-26 00:00:00.0000, 2.314844730762496E+08, -4.436702355945970E+08, 1.848453577789009E+06,
2460798.500000000, A.D. 2025-May-03 00:00:00.0000, 2.389399611202255E+08, -4.376455244680187E+08, 1.336023437598944E+06,
2460805.500000000, A.D. 2025-May-10 00:00:00.0000, 2.463018845728771E+08, -4.314494795061434E+08, 8.230707195776999E+05,
2460812.500000000, A.D. 2025-May-17 00:00:00.0000, 2.535662928236313E+08, -4.250826606518568E+08, 3.097928826477826E+05,
2460819.500000000, A.D. 2025-May-24 00:00:00.0000, 2.607291846164492E+08, -4.185457074422731E+08, -2.036081351321042E+05,
2460826.500000000, A.D. 2025-May-31 00:00:00.0000, 2.677865092017201E+08, -4.118393425431936E+08, -7.169259290958643E+05,
2460833.500000000, A.D. 2025-Jun-07 00:00:00.0000, 2.747341678289914E+08, -4.049643740415601E+08, -1.229949553416044E+06,
2460840.500000000, A.D. 2025-Jun-14 00:00:00.0000, 2.815680132239214E+08, -3.979216971626237E+08, -1.742463197503984E+06,
2460847.500000000, A.D. 2025-Jun-21 00:00:00.0000, 2.882838482746537E+08, -3.907122986807510E+08, -2.254245992906690E+06,
2460854.500000000, A.D. 2025-Jun-28 00:00:00.0000, 2.948774270665169E+08, -3.833372622562079E+08, -2.765072094024479E+06,
2460861.500000000, A.D. 2025-Jul-05 00:00:00.0000, 3.013444567608559E+08, -3.757977725399294E+08, -3.274710717797160E+06,
2460868.500000000, A.D. 2025-Jul-12 00:00:00.0000, 3.076805991397424E+08, -3.680951188508422E+08, -3.782926099387780E+06,
2460875.500000000, A.D. 2025-Jul-19 00:00:00.0000, 3.138814720185695E+08, -3.602306989997691E+08, -4.289477428715155E+06,
2460882.500000000, A.D. 2025-Jul-26 00:00:00.0000, 3.199426507485601E+08, -3.522060233145104E+08, -4.794118792220131E+06,
2460889.500000000, A.D. 2025-Aug-02 00:00:00.0000, 3.258596698864947E+08, -3.440227188411009E+08, -5.296599124642327E+06,
2460896.500000000, A.D. 2025-Aug-09 00:00:00.0000, 3.316280250670350E+08, -3.356825337308089E+08, -5.796662174750283E+06,
2460903.500000000, A.D. 2025-Aug-16 00:00:00.0000, 3.372431751669475E+08, -3.271873418691339E+08, -6.294046497905821E+06,
2460910.500000000, A.D. 2025-Aug-23 00:00:00.0000, 3.427005450673888E+08, -3.185391477217168E+08, -6.788485501612931E+06,
2460917.500000000, A.D. 2025-Aug-30 00:00:00.0000, 3.479955293584908E+08, -3.097400906740955E+08, -7.279707516458049E+06,
2460924.500000000, A.D. 2025-Sep-06 00:00:00.0000, 3.531234955842590E+08, -3.007924478565130E+08, -7.767435681179032E+06,
2460931.500000000, A.D. 2025-Sep-13 00:00:00.0000, 3.580797853720958E+08, -2.916986379271584E+08, -8.251387692249358E+06,
2460938.500000000, A.D. 2025-Sep-20 00:00:00.0000, 3.628597167345374E+08, -2.824612274459010E+08, -8.731275853486642E+06,
2460945.500000000, A.D. 2025-Sep-27 00:00:00.0000, 3.674585886173239E+08, -2.730829367130842E+08, -9.206807269406557E+06,
2460952.500000000, A.D. 2025-Oct-04 00:00:00.0000, 3.718716856932136E+08, -2.635666445198309E+08, -9.677683954213470E+06,
2460959.500000000, A.D. 2025-Oct-11 00:00:00.0000, 3.760942830433900E+08, -2.539153927370082E+08, -1.014360290026422E+07,
2460966.500000000, A.D. 2025-Oct-18 00:00:00.0000, 3.801216510251259E+08, -2.441323909992877E+08, -1.060425615561034E+07,
2460973.500000000, A.D. 2025-Oct-25 00:00:00.0000, 3.839490604798721E+08, -2.342210214532350E+08, -1.105933092378511E+07,
2460980.500000000, A.D. 2025-Nov-01 00:00:00.0000, 3.875717883353722E+08, -2.241848435319243E+08, -1.150850968955122E+07,
2460987.500000000, A.D. 2025-Nov-08 00:00:00.0000, 3.909851236496007E+08, -2.140275987634825E+08, -1.195147037780979E+07,
2460994.500000000, A.D. 2025-Nov-15 00:00:00.0000, 3.941843742562022E+08, -2.037532156456673E+08, -1.238788656558485E+07,
2461001.500000000, A.D. 2025-Nov-22 00:00:00.0000, 3.971648744249522E+08, -1.933658143368883E+08, -1.281742776760818E+07,
2461008.500000000, A.D. 2025-Nov-29 00:00:00.0000, 3.999219933954114E+08, -1.828697099971361E+08, -1.323975969015363E+07,
2461015.500000000, A.D. 2025-Dec-06 00:00:00.0000, 4.024511425173918E+08, -1.722694148832399E+08, -1.365454425675660E+07,
2461022.500000000, A.D. 2025-Dec-13 00:00:00.0000, 4.047477814387760E+08, -1.615696425354502E+08, -1.406143972256294E+07,
2461029.500000000, A.D. 2025-Dec-20 00:00:00.0000, 4.068074268371968E+08, -1.507753129944091E+08, -1.446010111557399E+07,
2461036.500000000, A.D. 2025-Dec-27 00:00:00.0000, 4.086256626245761E+08, -1.398915564168488E+08, -1.485018069580791E+07,
2461043.500000000, A.D. 2026-Jan-03 00:00:00.0000, 4.101981501664971E+08, -1.289237156639987E+08, -1.523132834998647E+07,
2461050.500000000, A.D. 2026-Jan-10 00:00:00.0000, 4.115206386242685E+08, -1.178773484981665E+08, -1.560319198833991E+07,
2461057.500000000, A.D. 2026-Jan-17 00:00:00.0000, 4.125889756470536E+08, -1.067582294336020E+08, -1.596541797326942E+07,
2461064.500000000, A.D. 2026-Jan-24 00:00:00.0000, 4.133991184834636E+08, -9.557235117188469E+07, -1.631765158594777E+07,
2461071.500000000, A.D. 2026-Jan-31 00:00:00.0000, 4.139471455238176E+08, -8.432592558111408E+07, -1.665953753426623E+07,
2461078.500000000, A.D. 2026-Feb-07 00:00:00.0000, 4.142292683176589E+08, -7.302538422777174E+07, -1.699072051297555E+07,
2461085.500000000, A.D. 2026-Feb-14 00:00:00.0000, 4.142418442960964E+08, -6.167737842779846E+07, -1.731084584086484E+07,
2461092.500000000, A.D. 2026-Feb-21 00:00:00.0000, 4.139813905555410E+08, -5.028877818922809E+07, -1.761956016343834E+07,
2461099.500000000, A.D. 2026-Feb-28 00:00:00.0000, 4.134445975831509E+08, -3.886666883986305E+07, -1.791651202693231E+07,
2461106.500000000, A.D. 2026-Mar-07 00:00:00.0000, 4.126283408289005E+08, -2.741834723844905E+07, -1.820135229366947E+07,
2461113.500000000, A.D. 2026-Mar-14 00:00:00.0000, 4.115296928566483E+08, -1.595131985273022E+07, -1.847373484338845E+07,
2461120.500000000, A.D. 2026-Mar-21 00:00:00.0000, 4.101459378075936E+08, -4.473299757108985E+06, -1.873331748622470E+07,
2461127.500000000, A.D. 2026-Mar-28 00:00:00.0000, 4.084745861143098E+08, 7.007798524951285E+06, -1.897976281755469E+07,
2461134.500000000, A.D. 2026-Apr-04 00:00:00.0000, 4.065133888035211E+08, 1.848386540937330E+07, -1.921273903652020E+07,
2461141.500000000, A.D. 2026-Apr-11 00:00:00.0000, 4.042603515956925E+08, 2.994660354787698E+07, -1.943192078066339E+07,
2461148.500000000, A.D. 2026-Apr-18 00:00:00.0000, 4.017137488876561E+08, 4.138753605888189E+07, -1.963698998927885E+07,
2461155.500000000, A.D. 2026-Apr-25 00:00:00.0000, 3.988721375849528E+08, 5.279801573640116E+07, -1.982763679548723E+07,
2461162.500000000, A.D. 2026-May-02 00:00:00.0000, 3.957343707303065E+08, 6.416923523064383E+07, -2.000356044885329E+07,
2461169.500000000, A.D. 2026-May-09 00:00:00.0000, 3.922996109640881E+08, 7.549223815057802E+07, -2.016447028162828E+07,
2461176.500000000, A.D. 2026-May-16 00:00:00.0000, 3.885673441008310E+08, 8.675793123473024E+07, -2.031008673791428E+07,
2461183.500000000, A.D. 2026-May-23 00:00:00.0000, 3.845373927728935E+08, 9.795709861246619E+07, -2.044014238233829E+07,
2461190.500000000, A.D. 2026-May-30 00:00:00.0000, 3.802099279601525E+08, 1.090804184696687E+08, -2.055438266619302E+07,
2461197.500000000, A.D. 2026-Jun-06 00:00:00.0000, 3.755854779897025E+08, 1.201184788289055E+08, -2.065256668432977E+07,
2461204.500000000, A.D. 2026-Jun-13 00:00:00.0000, 3.706649385681556E+08, 1.310617926121009E+08, -2.073446823766622E+07,
2461211.500000000, A.D. 2026-Jun-20 00:00:00.0000, 3.654495832373956E+08, 1.419008148717431E+08, -2.079987691041058E+07,
2461218.500000000, A.D. 2026-Jun-27 00:00:00.0000, 3.599410724501514E+08, 1.526259618013043E+08, -2.084859902787348E+07,
2461225.500000000, A.D. 2026-Jul-04 00:00:00.0000, 3.541414611635428E+08, 1.632276306888211E+08, -2.088045855198835E+07,
2461232.500000000, A.D. 2026-Jul-11 00:00:00.0000, 3.480532051062216E+08, 1.736962206087450E+08, -2.089529794229525E+07,
2461239.500000000, A.D. 2026-Jul-18 00:00:00.0000, 3.416791657181769E+08, 1.840221537933794E+08, -2.089297898236515E+07,
2461246.500000000, A.D. 2026-Jul-25 00:00:00.0000, 3.350226137002105E+08, 1.941958975911927E+08, -2.087338356719309E+07,
2461253.500000000, A.D. 2026-Aug-01 00:00:00.0000, 3.280872311415807E+08, 2.042079868580755E+08, -2.083641445343328E+07,
2461260.500000000, A.D. 2026-Aug-08 00:00:00.0000, 3.208771123708703E+08, 2.140490466301035E+08, -2.078199598881987E+07,
2461267.500000000, A.D. 2026-Aug-15 00:00:00.0000, 3.133967638861752E+08, 2.237098154022664E+08, -2.071007481609014E+07,
2461274.500000000, A.D. 2026-Aug-22 00:00:00.0000, 3.056511025527794E+08, 2.331811700981187E+08, -2.062062037582037E+07,
2461281.500000000, A.D. 2026-Aug-29 00:00:00.0000, 2.976454497390681E+08, 2.424541512188139E+08, -2.051362510415703E+07,
2461288.500000000, A.D. 2026-Sep-05 00:00:00.0000, 2.893855235060912E+08, 2.515199851628145E+08, -2.038910475060672E+07,
2461295.500000000, A.D. 2026-Sep-12 00:00:00.0000, 2.808774313016942E+08, 2.603701060611663E+08, -2.024709883314054E+07,
$$EOE